NORAD_CAT_ID,OBJECT_NAME,OBJECT_TYPE,EPOCH,MEAN_MOTION,ECCENTRICITY,INCLINATION,RA_OF_ASC_NODE,ARG_OF_PERICENTER,MEAN_ANOMALY,BSTAR,MEAN_MOTION_DOT,MEAN_MOTION_DDOT,TLE_LINE0,TLE_LINE1,TLE_LINE2,SEMIMAJOR_AXIS,PERIOD,APOGEE,PERIGEE,DECAYED
49747.0,STARLINK-3247,PAYLOAD,2022-06-23 02:20:50,15.08841133,0.0002723999999999,53.2156,114.6052,57.1989,302.9265,2.153800000000001e-05,5.4e-07,0.0,0 STARLINK-3247,1 49747U 21115Z   22174.09780488  .00000054  00000-0  21538-4 0  9993,2 49747  53.2156 114.6052 0002724  57.1989 302.9265 15.08841133 31991,6917.877,95.437,541.626,537.857,0.0
49747.0,STARLINK-3247,PAYLOAD,2022-06-23 05:31:36,15.08839807,0.0002845,53.2154,114.0096,67.7202,292.4091,0.0001134,1.517e-05,0.0,0 STARLINK-3247,1 49747U 21115Z   22174.23028334  .00001517  00000-0  11340-3 0  9998,2 49747  53.2154 114.0096 0002845  67.7202 292.4091 15.08839807 30905,6917.880999999999,95.438,541.714,537.778,0.0
49747.0,STARLINK-3247,PAYLOAD,2022-06-23 13:28:32,15.08835365,0.0002669,53.2155,112.5228,57.9757,302.1494,6.2137e-05,7.000000000000003e-06,0.0,0 STARLINK-3247,1 49747U 21115Z   22174.56148698  .00000700  00000-0  62137-4 0  9994,2 49747  53.2155 112.5228 0002669  57.9757 302.1494 15.08835365 30952,6917.895,95.438,541.606,537.913,0.0
49747.0,STARLINK-3247,PAYLOAD,2022-06-24 05:22:23,15.08839909,0.0002824,53.2156,109.5488,63.8276,296.3006,-1.3117e-05,-4.97e-06,0.0,0 STARLINK-3247,1 49747U 21115Z   22175.22388775 -.00000497  00000-0 -13117-4 0  9999,2 49747  53.2156 109.5488 0002824  63.8276 296.3006 15.08839909 32168,6917.880999999999,95.438,541.6990000000002,537.7919999999998,0.0
49747.0,STARLINK-3247,PAYLOAD,2022-06-25 05:13:11,15.08832632,0.0002763,53.2162,105.0896,61.8303,298.2968,-1.3314e-07,-2.91e-06,0.0,0 STARLINK-3247,1 49747U 21115Z   22176.21749472 -.00000291  00000-0 -13314-6 0  9997,2 49747  53.2162 105.0896 0002763  61.8303 298.2968 15.08832632 32311,6917.903,95.438,541.679,537.856,0.0
49747.0,STARLINK-3247,PAYLOAD,2022-06-26 01:53:11,15.08842329,0.0002713,53.2161,101.2236,60.5954,299.5308,0.00013265,1.823e-05,0.0,0 STARLINK-3247,1 49747U 21115Z   22177.07860638  .00001823  00000-0  13265-3 0  9992,2 49747  53.2161 101.2236 0002713  60.5954 299.5308 15.08842329 32449,6917.873000000001,95.437,541.615,537.861,0.0
49747.0,STARLINK-3247,PAYLOAD,2022-06-26 11:25:30,15.08843928,0.0002656,53.2157,99.4389,58.5144,301.6107,8.0682e-05,9.96e-06,0.0,0 STARLINK-3247,1 49747U 21115Z   22177.47604618  .00000996  00000-0  80682-4 0  9998,2 49747  53.2157  99.4389 0002656  58.5144 301.6107 15.08843928 31396,6917.868,95.437,541.571,537.896,0.0
49747.0,STARLINK-3247,PAYLOAD,2022-06-27 03:19:22,15.08838749,0.0002803,53.2166,96.4647,62.3814,297.7463,0.00011169,1.489e-05,0.0,0 STARLINK-3247,1 49747U 21115Z   22178.13844920  .00001489  00000-0  11169-3 0  9995,2 49747  53.2166  96.4647 0002803  62.3814 297.7463 15.08838749 32601,6917.884,95.438,541.688,537.81,0.0
49747.0,STARLINK-3247,PAYLOAD,2022-06-27 11:16:17,15.08839068,0.0002896,53.2165,94.9766,59.8551,300.2728,0.00010167,1.33e-05,0.0,0 STARLINK-3247,1 49747U 21115Z   22178.46964919  .00001330  00000-0  10167-3 0  9994,2 49747  53.2165  94.9766 0002896  59.8551 300.2728 15.08839068 31547,6917.8830000000025,95.438,541.752,537.745,0.0
49747.0,STARLINK-3247,PAYLOAD,2022-06-28 11:07:05,15.08827244,0.0002568,53.2164,90.5199,66.9436,293.1826,-0.00013327,-2.408e-05,0.0,0 STARLINK-3247,1 49747U 21115Z   22179.46326289 -.00002408  00000-0 -13327-3 0  9997,2 49747  53.2164  90.5199 0002568  66.9436 293.1826 15.08827244 32807,6917.919,95.438,541.561,538.008,0.0
49747.0,STARLINK-3247,PAYLOAD,2022-06-29 03:00:57,15.08832523,0.0002413,53.2156,87.5446,62.7664,297.3574,-6.345899999999999e-05,-1.298e-05,0.0,0 STARLINK-3247,1 49747U 21115Z   22180.12566115 -.00001298  00000-0 -63459-4 0  9994,2 49747  53.2156  87.5446 0002413  62.7664 297.3574 15.08832523 32908,6917.903,95.438,541.438,538.099,0.0
49747.0,STARLINK-3247,PAYLOAD,2022-06-29 10:57:52,15.08834491,0.0002403,53.2157,86.0577,63.1977,296.9261,-3.7414e-05,-8.84e-06,0.0,0 STARLINK-3247,1 49747U 21115Z   22180.45686030 -.00000884  00000-0 -37414-4 0  9991,2 49747  53.2157  86.0577 0002403  63.1977 296.9261 15.08834491 31845,6917.897,95.438,541.425,538.1,0.0
49747.0,STARLINK-3247,PAYLOAD,2022-06-30 04:27:07,15.08831349,0.0002472,53.2161,82.786,64.4336,295.6911,0.00010903,1.447e-05,0.0,0 STARLINK-3247,1 49747U 21115Z   22181.18549999  .00001447  00000-0  10903-3 0  9991,2 49747  53.2161  82.7860 0002472  64.4336 295.6911 15.08831349 33060,6917.906999999997,95.438,541.482,538.062,0.0
49747.0,STARLINK-3247,PAYLOAD,2022-06-30 06:02:30,15.088366,0.0002465,53.216,82.4892,63.9656,296.159,6.6762e-05,7.74e-06,0.0,0 STARLINK-3247,1 49747U 21115Z   22181.25173866  .00000774  00000-0  66762-4 0  9992,2 49747  53.2160  82.4892 0002465  63.9656 296.1590 15.08836600 31963,6917.891,95.438,541.461,538.0509999999998,0.0
49747.0,STARLINK-3247,PAYLOAD,2022-06-30 17:10:12,15.08835453,0.0002484,53.2162,80.4072,65.0684,295.0566,0.00012491,1.7e-05,0.0,0 STARLINK-3247,1 49747U 21115Z   22181.71541933  .00001700  00000-0  12491-3 0  9996,2 49747  53.2162  80.4072 0002484  65.0684 295.0566 15.08835453 32033,6917.894,95.438,541.4780000000002,538.0409999999998,0.0
49747.0,STARLINK-3247,PAYLOAD,2022-07-01 02:42:30,15.08842164,0.0002511,53.2162,78.623,65.8286,294.2968,0.0001361999999999,1.88e-05,0.0,0 STARLINK-3247,1 49747U 21115Z   22182.11285554  .00001880  00000-0  13620-3 0  9999,2 49747  53.2162  78.6230 0002511  65.8286 294.2968 15.08842164 33209,6917.874,95.437,541.476,538.002,0.0
49747.0,STARLINK-3247,PAYLOAD,2022-07-01 10:39:27,15.08831652,0.0002523,53.2161,77.1365,65.4466,294.6789,3.216e-05,2.23e-06,0.0,0 STARLINK-3247,1 49747U 21115Z   22182.44406618  .00000223  00000-0  32160-4 0  9992,2 49747  53.2161  77.1365 0002523  65.4466 294.6789 15.08831652 33250,6917.906,95.438,541.516,538.026,0.0
49747.0,STARLINK-3247,PAYLOAD,2022-07-01 21:47:09,15.08834072,0.0002535,53.216,75.0549,66.2841,293.8417,7.2961e-06,-1.72e-06,0.0,0 STARLINK-3247,1 49747U 21115Z   22182.90774683 -.00000172  00000-0  72961-5 0  9991,2 49747  53.2160  75.0549 0002535  66.2841 293.8417 15.08834072 32212,6917.899,95.438,541.5169999999998,538.01,0.0
49747.0,STARLINK-3247,PAYLOAD,2022-07-02 02:33:18,15.08836967,0.0002523,53.2161,74.1628,66.6686,293.4571,4.8268e-06,-2.12e-06,0.0,0 STARLINK-3247,1 49747U 21115Z   22183.10646550 -.00000212  00000-0  48268-5 0  9993,2 49747  53.2161  74.1628 0002523  66.6686 293.4571 15.08836967 32244,6917.89,95.438,541.5,538.009,0.0
49747.0,STARLINK-3247,PAYLOAD,2022-07-02 21:37:55,15.08849842,0.0002535,53.2163,70.5942,67.7512,292.3749,4.757e-05,4.69e-06,0.0,0 STARLINK-3247,1 49747U 21115Z   22183.90133448  .00000469  00000-0  47570-4 0  9995,2 49747  53.2163  70.5942 0002535  67.7512 292.3749 15.08849842 33475,6917.85,95.437,541.469,537.962,0.0
49747.0,STARLINK-3247,PAYLOAD,2022-07-03 02:24:04,15.088537699999998,0.0002546,53.2164,69.7018,68.5797,291.5466,8.2366e-05,1.023e-05,0.0,0 STARLINK-3247,1 49747U 21115Z   22184.10005027  .00001023  00000-0  82366-4 0  9998,2 49747  53.2164  69.7018 0002546  68.5797 291.5466 15.08853770 32398,6917.8380000000025,95.437,541.465,537.942,0.0
49747.0,STARLINK-3247,PAYLOAD,2022-07-03 21:28:42,15.0884551,0.0002488,53.2166,66.1337,71.9624,288.1639,0.00010756,1.424e-05,0.0,0 STARLINK-3247,1 49747U 21115Z   22184.89493086  .00001424  00000-0  10756-3 0  9998,2 49747  53.2166  66.1337 0002488  71.9624 288.1639 15.08845510 32518,6917.864000000001,95.437,541.45,538.007,0.0
49747.0,STARLINK-3247,PAYLOAD,2022-07-04 02:14:52,15.0883255,0.0002381,53.216,65.2415,68.8583,291.2663,-2.3908e-05,-6.69e-06,0.0,0 STARLINK-3247,1 49747U 21115Z   22185.09366336 -.00000669  00000-0 -23908-4 0  9994,2 49747  53.2160  65.2415 0002381  68.8583 291.2663 15.08832550 33658,6917.903,95.438,541.415,538.121,0.0
49747.0,STARLINK-3247,PAYLOAD,2022-07-04 08:36:25,15.08821949,0.0002405,53.2161,64.0516,67.8861,292.2386,-0.00012195,-2.228e-05,0.0,0 STARLINK-3247,1 49747U 21115Z   22185.35863417 -.00002228  00000-0 -12195-3 0  9993,2 49747  53.2161  64.0516 0002405  67.8861 292.2386 15.08821949 33690,6917.936,95.439,541.464,538.137,0.0
49747.0,STARLINK-3247,PAYLOAD,2022-07-04 22:54:54,15.08828315,0.0002391,53.2166,61.37600000000001,71.5939,288.5313,-0.00016753,-2.953e-05,0.0,0 STARLINK-3247,1 49747U 21115Z   22185.95479629 -.00002953  00000-0 -16753-3 0  9996,2 49747  53.2166  61.3760 0002391  71.5939 288.5313 15.08828315 32677,6917.916,95.438,541.435,538.127,0.0
49747.0,STARLINK-3247,PAYLOAD,2022-07-05 02:05:40,15.08828512,0.0002379,53.2165,60.7813,71.3684,288.7566,-0.00015868,-2.812e-05,0.0,0 STARLINK-3247,1 49747U 21115Z   22186.08727706 -.00002812  00000-0 -15868-3 0  9993,2 49747  53.2165  60.7813 0002379  71.3684 288.7566 15.08828512 33806,6917.916,95.438,541.4259999999998,538.135,0.0
49747.0,STARLINK-3247,PAYLOAD,2022-07-05 08:27:13,15.08830754,0.0002291,53.2159,59.5917,69.6059,290.5179,-0.00013158,-2.381e-05,0.0,0 STARLINK-3247,1 49747U 21115Z   22186.35223637 -.00002381  00000-0 -13158-3 0  9998,2 49747  53.2159  59.5917 0002291  69.6059 290.5179 15.08830754 32732,6917.909000000002,95.438,541.359,538.189,0.0
49747.0,STARLINK-3247,PAYLOAD,2022-07-05 21:10:18,15.08832246,0.0002241,53.2166,57.2129,71.4702,288.6533,-7.148899999999999e-05,-1.426e-05,0.0,0 STARLINK-3247,1 49747U 21115Z   22186.88215760 -.00001426  00000-0 -71489-4 0  9995,2 49747  53.2166  57.2129 0002241  71.4702 288.6533 15.08832246 32810,6917.904,95.438,541.319,538.219,0.0
49747.0,STARLINK-3247,PAYLOAD,2022-07-06 08:18:00,15.08824918,0.0002292,53.2164,55.1315,71.0904,289.0336,0.00011616,1.56e-05,0.0,0 STARLINK-3247,1 49747U 21115Z   22187.34584049  .00001560  00000-0  11616-3 0  9998,2 49747  53.2164  55.1315 0002292  71.0904 289.0336 15.08824918 33991,6917.926,95.439,541.377,538.206,0.0
